#aV2015 11 19  0  0  0.00000000     288 DD+AD WGS84 FIT  NGA
## 1871 345600.00000000   300.00000000 57345 0.0000000000000
+   30     1  2  3  5  6  7  8  9 11 12 13 14 15 16 17 18 19
+         20 21 22 23 24 25 26 27 28 29 30 31 32  0  0  0  0
+          0  0  0  0  0  0  0  0  0  0  0  0  0  0  0  0  0
+          0  0  0  0  0  0  0  0  0  0  0  0  0  0  0  0  0
+          0  0  0  0  0  0  0  0  0  0  0  0  0  0  0  0  0
++         2  2  2  2  2  2  2  2  2  2  2  2  2  2  2  2  2
++         2  2  2  2  2  2  2  2  2  2  2  2  2  0  0  0  0
++         0  0  0  0  0  0  0  0  0  0  0  0  0  0  0  0  0
++         0  0  0  0  0  0  0  0  0  0  0  0  0  0  0  0  0
++         0  0  0  0  0  0  0  0  0  0  0  0  0  0  0  0  0
%c cc cc ccc ccc cccc cccc cccc cccc ccccc ccccc ccccc ccccc
%c cc cc ccc ccc cccc cccc cccc cccc ccccc ccccc ccccc ccccc
%f  0.0000000  0.000000000  0.00000000000  0.000000000000000
%f  0.0000000  0.000000000  0.00000000000  0.000000000000000
%i    0    0    0    0      0      0      0      0         0
%i    0    0    0    0      0      0      0      0         0
/*      NGA, ST. LOUIS,MO.                                  
/*   EPHEMERIS COMPUTED FROM 2 DAYS OF DATA                 
/*   EPOCHA v2.4 SMOOTHER                                   
/*   G1762 IERS2010 SATAF SATAPC                            
*  2015 11 19 17 25  0.00000000
P  1   2461.361457  15068.694575 -21797.724517      4.808826                    
V  1 -26531.023521   7259.975454   2229.879324      0.008222                    
P  2  19467.137719 -14536.510262  10593.502743    596.173910                    
V  2  13418.192375  -1030.125490 -27511.141311      0.009210                    
P  3   9689.320496  21364.610948 -12430.748145     12.048008                    
V  3 -13051.287178  -9218.662752 -26031.342725     -0.037749                    
P  5   8946.920050 -12778.420459  21418.111695   -173.138924                    
V  5  20228.818291  18517.718911   2782.158608      0.037903                    
P  6  25708.622716  -6481.616625  -1466.510281     97.930320                    
V  6  -1006.836435   3177.947569 -31733.320820      0.066684                    
P  7  18338.794450   7845.978047  17856.951835    479.901151                    
V  7 -21188.617577   6905.395002  18483.034560     -0.010637                    
P  8  -5246.576627  26001.567067  -1373.487547    -13.098090                    
V  8  -3136.836490   1102.491844  31701.426582     -0.014195                    
P  9  10285.760565  15191.734248  19190.415284     13.024380                    
V  9  -7020.702323  23419.330426 -14777.094899      0.062464                    
P 11  -1189.898535  19461.941393 -18562.174793   -617.081191                    
V 11 -19559.320549  11845.708366  14170.727787     -0.021495                    
P 12  -6964.178377 -21275.733773 -14563.192332    346.714225                    
V 12  13389.530909  12347.001431 -24412.374622      0.030955                    
P 13  12698.508185 -22546.876276   6082.061646   -165.448717                    
V 13   -577.837657   8167.633044  30708.255419     -0.027843                    
P 14 -15749.426831   1244.462835 -21076.376271     20.667433                    
V 14   7829.323438 -26227.711486  -7456.694828     -0.024066                    
P 15   2360.725793 -26064.877211  -3389.229033   -282.968340                    
V 15   4671.695174  -3427.950368  30929.836504     -0.019560                    
P 16  -9558.664172  11011.514406  22100.961678    -65.040478                    
V 16 -19195.909442 -20656.652981   2342.797188      0.035986                    
P 17  15429.845247  -1428.779015 -21227.503194   -194.422706                    
V 17  -7159.617282  26754.392871  -7108.865991     -0.009974                    
P 18 -21157.391636 -15842.006991  -3331.976358    454.516313                    
V 18  -1077.128662  -5997.631865  30381.179640      0.036554                    
P 19   9811.750501  14126.326786 -20360.672216   -522.919551                    
V 19  -9388.407862  23647.808393  12434.803666     -0.003934                    
P 20  -7930.906555 -20616.119438  14538.951709    372.196654                    
V 20  16457.000272   9673.913708  22519.235134      0.028789                    
P 21 -21182.240417  -5658.103104  15924.246814   -494.467276                    
V 21  17395.010894  -7653.040410  21083.652956     -0.024049                    
P 22 -21508.909097  -4395.660419 -14834.887375    412.041068                    
V 22 -12372.690583 -15065.579312  21873.419202      0.034081                    
P 23   2119.742444  23999.591837  10846.527193   -145.309957                    
V 23  -6275.093922  12565.636017 -27425.144592     -0.020552                    
P 24    614.301168 -16016.710684 -21189.093516     -8.187063                    
V 24  25872.208874  -7343.375347   6481.792970     -0.005073                    
P 25 -17388.777413 -19918.242513  -3462.107812    -69.953428                    
V 25   4498.397376   1441.793378 -31633.480513     -0.058183                    
P 26 -17221.604410   2947.568888  20013.116928   -129.302272                    
V 26 -17664.450026 -18284.845950 -12491.931358     -0.157857                    
P 27 -11795.172272  21834.857063   9260.114980     37.266780                    
V 27    425.695808 -12056.677230  29018.533571      0.032066                    
P 28  20492.993593   9783.295582 -13203.756936    482.560628                    
V 28  10645.018618  14299.702601  25819.754512      0.026847                    
P 29  -7360.940536 -18000.165334  18121.009059    645.072168                    
V 29   7915.402681 -21559.700856 -18179.936455      0.015105                    
P 30  24938.304650   1277.698451   9168.324550     59.248903                    
V 30 -10800.439722   5074.310797  28593.099026      0.055742                    
P 31 -25907.908859   6671.983247     62.256909    294.632465                    
V 31   -454.763363  -2081.760449 -31795.381946     -0.014929                    
P 32  -1678.271147  18725.078972 -19026.006945     22.003752                    
V 32 -16814.468881 -17017.771942 -14783.248405      0.118807                    
EOF
